BEIDOU-3 M28            
1 58654U 23207A   26158.09706529 -.00000041  00000+0  00000+0 0  9996
2 58654  55.7441  62.6436 0003527 343.0985  16.9178  1.86229766 16659
BEIDOU-3 M26            
1 58655U 23207B   26157.89456170 -.00000041  00000+0  00000+0 0  9998
2 58655  55.7459  62.6370 0003491 317.5476  42.4536  1.86229767 16638
GSAT0225 (GALILEO 29)   
1 59598U 24079A   26158.72723269  .00000025  00000+0  00000+0 0  9993
2 59598  55.1140 101.3451 0001801 291.6432 248.2386  1.70474089 13159
GSAT0227 (GALILEO 30)   
1 59600U 24079C   26158.03093536  .00000024  00000+0  00000+0 0  9997
2 59600  55.1089 101.3625 0001893  43.8479 316.1405  1.70474095 13195
GSAT0232 (GALILEO 32)   
1 61182U 24167A   26158.84900730  .00000043  00000+0  00000+0 0  9996
2 61182  55.1875 221.5705 0005963 224.5707 133.0586  1.70474473 10715
GSAT0226 (GALILEO 31)   
1 61183U 24167B   26159.43259729  .00000044  00000+0  00000+0 0  9999
2 61183  55.1862 221.5616 0002749 222.4948 224.6354  1.70474396 10709
BEIDOU-3 M25            
1 61186U 24168B   26159.38519895 -.00000058  00000+0  00000+0 0  9996
2 61186  54.4820 302.5490 0003038 304.0790  92.6414  1.86230106 11620
BEIDOU-3 M27            
1 61187U 24168C   26159.13068598 -.00000057  00000+0  00000+0 0  9998
2 61187  54.4776 302.5409 0001703  48.1833 312.9252  1.86230199  9090
NAVSTAR 83 (USA 440)    
1 62339U 24242A   26158.87064720 -.00000062  00000+0  00000+0 0  9990
2 62339  54.8519 334.5596 0017390   4.1176 357.6425  2.00571460 11077
QZS-6 (MICHIBIKI-6)     
1 62876U 25023A   26159.50422477 -.00000218  00000+0  00000+0 0  9995
2 62876   0.0307  52.7580 0001959  32.3546  83.8043  1.00273771  4867
COSMOS 2584 [GLONASS-K2]
1 63130U 25042A   26159.22437977 -.00000015  00000+0  00000+0 0  9995
2 63130  65.0792  73.1067 0005828 228.4476 131.5246  2.13103875  9858
NAVSTAR 84 (USA 545)    
1 64202U 25116A   26155.36633038 -.00000073  00000+0  00000+0 0  9999
2 64202  55.2259  31.6468 0008452 337.8257 196.1658  2.00577081  7616
COSMOS 2596 [GLONASS-K1]
1 65590U 25206B   26159.53469687 -.00000032  00000+0  00000+0 0  9995
2 65590  64.6398 315.2872 0011119 313.0579  41.4208  2.13100734  5726
GSAT0233 (GALILEO 33)   
1 67160U 25302A   26157.66258742  .00000023  00000+0  00000+0 0  9996
2 67160  54.3305 102.4316 0001324 236.8649 300.4651  1.70474269  2941
GSAT0234 (GALILEO 34)   
1 67162U 25302C   26154.85627277  .00000010  00000+0  00000+0 0  9995
2 67162  54.3286 102.5103 0003271 302.9496 132.1778  1.70474390  2950
NAVSTAR 85 (USA 581)    
1 67588U 26017A   26156.23183609  .00000004  00000+0  00000+0 0  9994
2 67588  55.0812  89.2351 0022663 257.5579 102.1794  2.00571538431377
NAVSTAR 86 (USA 585)    
1 68791U 26087A   26158.43909353  .00000057  00000+0  00000+0 0  9992
2 68791  54.9638 208.1735 0020931 107.2972 251.8874  2.00569573   638
